{
  "norad_id": 57125,
  "name": "STARLINK-6100",
  "history": [
    {
      "epoch": "2026-03-28T21:43:52.081824Z",
      "apogee_km": 484.24278805842914,
      "perigee_km": 481.7782638671033,
      "latitude_deg": 4.966991036809087e-05,
      "longitude_deg": 2.410043484219471,
      "height_km": 482.6400556243446,
      "semi_major_axis_km": 6861.147525962766,
      "eccentricity": 0.0001796,
      "inclination_deg": 43.0017,
      "raan_deg": 154.6962,
      "arg_perigee_deg": 276.8833,
      "mean_anomaly_deg": 83.1815,
      "mean_motion_rev_day": 15.27592881
    },
    {
      "epoch": "2026-03-28T21:43:52.082688Z",
      "apogee_km": 484.24265083547834,
      "perigee_km": 481.7784010900541,
      "latitude_deg": 4.81210425523048e-05,
      "longitude_deg": 2.4100382226640944,
      "height_km": 482.64007206636666,
      "semi_major_axis_km": 6861.147525962766,
      "eccentricity": 0.00017958,
      "inclination_deg": 43.0017,
      "raan_deg": 154.6962,
      "arg_perigee_deg": 276.8833,
      "mean_anomaly_deg": 83.1815,
      "mean_motion_rev_day": 15.27592881
    },
    {
      "epoch": "2026-03-30T03:32:49.919136Z",
      "apogee_km": 484.07819623231353,
      "perigee_km": 481.9725055068311,
      "latitude_deg": -3.1293215830694476e-05,
      "longitude_deg": -93.07173332800315,
      "height_km": 482.65608971063597,
      "semi_major_axis_km": 6861.162350869572,
      "eccentricity": 0.00015345,
      "inclination_deg": 43.0014,
      "raan_deg": 147.68,
      "arg_perigee_deg": 277.9842,
      "mean_anomaly_deg": 82.0835,
      "mean_motion_rev_day": 15.2758793
    },
    {
      "epoch": "2026-03-30T12:57:46.732608Z",
      "apogee_km": 483.8883840164917,
      "perigee_km": 482.2117843406022,
      "latitude_deg": -2.1360327954276693e-05,
      "longitude_deg": 123.08926251036499,
      "height_km": 482.7408192357555,
      "semi_major_axis_km": 6861.187084178547,
      "eccentricity": 0.00012218,
      "inclination_deg": 43.0003,
      "raan_deg": 145.4644,
      "arg_perigee_deg": 275.8786,
      "mean_anomaly_deg": 84.1926,
      "mean_motion_rev_day": 15.2757967
    },
    {
      "epoch": "2026-03-30T20:48:33.504480Z",
      "apogee_km": 483.9950457191626,
      "perigee_km": 482.09902612267615,
      "latitude_deg": 3.550296938988505e-06,
      "longitude_deg": 3.225769514697221,
      "height_km": 482.7356307572231,
      "semi_major_axis_km": 6861.184035920919,
      "eccentricity": 0.00013817,
      "inclination_deg": 43.0009,
      "raan_deg": 143.618,
      "arg_perigee_deg": 275.3383,
      "mean_anomaly_deg": 84.7311,
      "mean_motion_rev_day": 15.27580688
    },
    {
      "epoch": "2026-03-31T03:05:10.896576Z",
      "apogee_km": 484.1321606075635,
      "perigee_km": 481.9566172127679,
      "latitude_deg": 4.797770993489458e-05,
      "longitude_deg": -92.66547259484625,
      "height_km": 482.7514111542986,
      "semi_major_axis_km": 6861.181388910166,
      "eccentricity": 0.00015854,
      "inclination_deg": 43.001,
      "raan_deg": 142.1403,
      "arg_perigee_deg": 273.6867,
      "mean_anomaly_deg": 86.3804,
      "mean_motion_rev_day": 15.27581572
    },
    {
      "epoch": "2026-04-01T19:53:16.416672Z",
      "apogee_km": 484.45238825325214,
      "perigee_km": 481.7380847804852,
      "latitude_deg": -3.172952771777628e-06,
      "longitude_deg": 4.035015270242813,
      "height_km": 482.8447547568208,
      "semi_major_axis_km": 6861.232236516868,
      "eccentricity": 0.0001978,
      "inclination_deg": 43.0047,
      "raan_deg": 132.5395,
      "arg_perigee_deg": 271.1893,
      "mean_anomaly_deg": 88.8732,
      "mean_motion_rev_day": 15.27564591
    },
    {
      "epoch": "2026-04-02T19:25:37.010496Z",
      "apogee_km": 484.0722867904842,
      "perigee_km": 482.0885716073544,
      "latitude_deg": -3.877313450107205e-06,
      "longitude_deg": 4.442593104773249,
      "height_km": 482.8877470383687,
      "semi_major_axis_km": 6861.217429198919,
      "eccentricity": 0.00014456,
      "inclination_deg": 43.0022,
      "raan_deg": 126.9996,
      "arg_perigee_deg": 268.2473,
      "mean_anomaly_deg": 91.8213,
      "mean_motion_rev_day": 15.27569536
    },
    {
      "epoch": "2026-04-03T03:16:23.634624Z",
      "apogee_km": 484.12341810345424,
      "perigee_km": 481.9872544814716,
      "latitude_deg": -2.1703617301683737e-05,
      "longitude_deg": -115.4197284345341,
      "height_km": 482.80386916556074,
      "semi_major_axis_km": 6861.192336292463,
      "eccentricity": 0.00015567,
      "inclination_deg": 43.003,
      "raan_deg": 125.1538,
      "arg_perigee_deg": 271.5364,
      "mean_anomaly_deg": 88.5309,
      "mean_motion_rev_day": 15.27577916
    },
    {
      "epoch": "2026-04-04T02:48:44.617248Z",
      "apogee_km": 484.14632996025466,
      "perigee_km": 481.93305158334533,
      "latitude_deg": 1.1295540621513132e-05,
      "longitude_deg": -115.01304004822295,
      "height_km": 482.79445683477866,
      "semi_major_axis_km": 6861.176690771799,
      "eccentricity": 0.00016129,
      "inclination_deg": 43.0019,
      "raan_deg": 119.6146,
      "arg_perigee_deg": 271.1558,
      "mean_anomaly_deg": 88.9109,
      "mean_motion_rev_day": 15.27583141
    },
    {
      "epoch": "2026-04-05T02:21:05.198112Z",
      "apogee_km": 484.17583333344373,
      "perigee_km": 481.91589692132766,
      "latitude_deg": -4.309932566867274e-05,
      "longitude_deg": -114.60426710899664,
      "height_km": 482.72408410730793,
      "semi_major_axis_km": 6861.182865127385,
      "eccentricity": 0.00016469,
      "inclination_deg": 43.0029,
      "raan_deg": 114.0759,
      "arg_perigee_deg": 275.0273,
      "mean_anomaly_deg": 85.039,
      "mean_motion_rev_day": 15.27581079
    },
    {
      "epoch": "2026-04-05T18:02:38.804928Z",
      "apogee_km": 483.9549997695003,
      "perigee_km": 482.13267013973655,
      "latitude_deg": 1.7795923418505443e-05,
      "longitude_deg": 5.666593258792822,
      "height_km": 482.7610895344223,
      "semi_major_axis_km": 6861.180834954618,
      "eccentricity": 0.0001328,
      "inclination_deg": 43.0006,
      "raan_deg": 110.3812,
      "arg_perigee_deg": 273.7415,
      "mean_anomaly_deg": 86.3285,
      "mean_motion_rev_day": 15.27581757
    },
    {
      "epoch": "2026-04-06T01:53:25.590624Z",
      "apogee_km": 483.9230948003096,
      "perigee_km": 482.1627904742272,
      "latitude_deg": 6.633596318288048e-05,
      "longitude_deg": -114.19643331736158,
      "height_km": 482.69749335394164,
      "semi_major_axis_km": 6861.179942637268,
      "eccentricity": 0.00012828,
      "inclination_deg": 43.0021,
      "raan_deg": 108.5353,
      "arg_perigee_deg": 277.9864,
      "mean_anomaly_deg": 82.0843,
      "mean_motion_rev_day": 15.27582055
    },
    {
      "epoch": "2026-04-07T01:25:46.396128Z",
      "apogee_km": 483.75376123984734,
      "perigee_km": 482.35243177453685,
      "latitude_deg": -5.801890802388603e-06,
      "longitude_deg": -113.79011930880671,
      "height_km": 482.763717442402,
      "semi_major_axis_km": 6861.190096507192,
      "eccentricity": 0.00010212,
      "inclination_deg": 43.0004,
      "raan_deg": 102.9951,
      "arg_perigee_deg": 275.3893,
      "mean_anomaly_deg": 84.6842,
      "mean_motion_rev_day": 15.27578664
    },
    {
      "epoch": "2026-04-08T07:14:44.612736Z",
      "apogee_km": 483.6812200828408,
      "perigee_km": 482.4324828018789,
      "latitude_deg": -2.227891146344375e-05,
      "longitude_deg": 150.72578358594686,
      "height_km": 482.8411951069368,
      "semi_major_axis_km": 6861.193851442359,
      "eccentricity": 9.1e-05,
      "inclination_deg": 42.9999,
      "raan_deg": 95.9781,
      "arg_perigee_deg": 269.2591,
      "mean_anomaly_deg": 90.8156,
      "mean_motion_rev_day": 15.2757741
    },
    {
      "epoch": "2026-04-09T16:12:02.392416Z",
      "apogee_km": 483.6657435614634,
      "perigee_km": 482.50070836709347,
      "latitude_deg": 6.816837925918484e-09,
      "longitude_deg": 7.293709988192985,
      "height_km": 482.6991688142435,
      "semi_major_axis_km": 6861.220225964278,
      "eccentricity": 8.49e-05,
      "inclination_deg": 42.9988,
      "raan_deg": 88.2235,
      "arg_perigee_deg": 285.9569,
      "mean_anomaly_deg": 74.1189,
      "mean_motion_rev_day": 15.27568602
    },
    {
      "epoch": "2026-04-10T06:19:28.669728Z",
      "apogee_km": 483.8250702959813,
      "perigee_km": 482.4401916336683,
      "latitude_deg": 3.888052963778501e-05,
      "longitude_deg": 151.53201040013536,
      "height_km": 482.7980007188146,
      "semi_major_axis_km": 6861.2696309648245,
      "eccentricity": 0.00010092,
      "inclination_deg": 43.0011,
      "raan_deg": 84.9013,
      "arg_perigee_deg": 279.2348,
      "mean_anomaly_deg": 80.839,
      "mean_motion_rev_day": 15.27552103
    },
    {
      "epoch": "2026-04-11T09:00:06.626016Z",
      "apogee_km": 483.794585557358,
      "perigee_km": 482.29473124683045,
      "latitude_deg": -1.3986514516707393e-05,
      "longitude_deg": 103.99990639482259,
      "height_km": 482.73480463396953,
      "semi_major_axis_km": 6861.1816584020935,
      "eccentricity": 0.0001093,
      "inclination_deg": 43.0023,
      "raan_deg": 78.623,
      "arg_perigee_deg": 276.628,
      "mean_anomaly_deg": 83.4447,
      "mean_motion_rev_day": 15.27581482
    },
    {
      "epoch": "2026-04-13T04:56:29.160384Z",
      "apogee_km": 483.4992935877199,
      "perigee_km": 482.5469645618041,
      "latitude_deg": 1.572588345320711e-05,
      "longitude_deg": 152.76260855933037,
      "height_km": 482.6224846361975,
      "semi_major_axis_km": 6861.160129074761,
      "eccentricity": 6.94e-05,
      "inclination_deg": 43.0024,
      "raan_deg": 68.2841,
      "arg_perigee_deg": 291.818,
      "mean_anomaly_deg": 68.2598,
      "mean_motion_rev_day": 15.27588672
    }
  ]
}